{
    "links": {
        "self": "http://www.neowsapp.com/rest/v1/neo/54016360?api_key=iIulBulltgU6a56xZRHN4H3l9WmuAYTsLGpBGhQ2"
    },
    "id": "54016360",
    "neo_reference_id": "54016360",
    "name": "(2020 FW4)",
    "designation": "2020 FW4",
    "nasa_jpl_url": "http://ssd.jpl.nasa.gov/sbdb.cgi?sstr=54016360",
    "absolute_magnitude_h": 21.701,
    "estimated_diameter": {
        "kilometers": {
            "estimated_diameter_min": 0.1214381036,
            "estimated_diameter_max": 0.2715438547
        },
        "meters": {
            "estimated_diameter_min": 121.4381036072,
            "estimated_diameter_max": 271.5438547243
        },
        "miles": {
            "estimated_diameter_min": 0.0754581159,
            "estimated_diameter_max": 0.1687294766
        },
        "feet": {
            "estimated_diameter_min": 398.4189878386,
            "estimated_diameter_max": 890.8919403338
        }
    },
    "is_potentially_hazardous_asteroid": true,
    "close_approach_data": [
        {
            "close_approach_date": "1906-10-28",
            "close_approach_date_full": "1906-Oct-28 23:59",
            "epoch_date_close_approach": -1993680060000,
            "relative_velocity": {
                "kilometers_per_second": "5.1007867371",
                "kilometers_per_hour": "18362.8322533913",
                "miles_per_hour": "11409.9498521142"
            },
            "miss_distance": {
                "astronomical": "1.322411467",
                "lunar": "514.418060663",
                "kilometers": "197829938.72677529",
                "miles": "122925823.778627402"
            },
            "orbiting_body": "Juptr"
        },
        {
            "close_approach_date": "2020-04-09",
            "close_approach_date_full": "2020-Apr-09 22:18",
            "epoch_date_close_approach": 1586470680000,
            "relative_velocity": {
                "kilometers_per_second": "18.6341549688",
                "kilometers_per_hour": "67082.9578875245",
                "miles_per_hour": "41682.7412496121"
            },
            "miss_distance": {
                "astronomical": "0.0503614899",
                "lunar": "19.5906195711",
                "kilometers": "7533971.619066513",
                "miles": "4681392.8850153594"
            },
            "orbiting_body": "Earth"
        },
        {
            "close_approach_date": "2025-06-25",
            "close_approach_date_full": "2025-Jun-25 15:58",
            "epoch_date_close_approach": 1750867080000,
            "relative_velocity": {
                "kilometers_per_second": "5.0463606558",
                "kilometers_per_hour": "18166.8983607605",
                "miles_per_hour": "11288.2041508848"
            },
            "miss_distance": {
                "astronomical": "1.3184240306",
                "lunar": "512.8669479034",
                "kilometers": "197233426.734574822",
                "miles": "122555168.4141916636"
            },
            "orbiting_body": "Juptr"
        },
        {
            "close_approach_date": "2144-01-09",
            "close_approach_date_full": "2144-Jan-09 11:13",
            "epoch_date_close_approach": 5491624380000,
            "relative_velocity": {
                "kilometers_per_second": "4.9575973811",
                "kilometers_per_hour": "17847.3505720184",
                "miles_per_hour": "11089.6495818189"
            },
            "miss_distance": {
                "astronomical": "1.2810365678",
                "lunar": "498.3232248742",
                "kilometers": "191640341.934990586",
                "miles": "119079786.6753226468"
            },
            "orbiting_body": "Juptr"
        }
    ],
    "orbital_data": {
        "orbit_id": "19",
        "orbit_determination_date": "2020-08-22 06:33:16",
        "first_observation_date": "2020-03-23",
        "last_observation_date": "2020-04-10",
        "data_arc_in_days": 18,
        "observations_used": 299,
        "orbit_uncertainty": "7",
        "minimum_orbit_intersection": ".0471242",
        "jupiter_tisserand_invariant": "3.219",
        "epoch_osculation": "2459000.5",
        "eccentricity": ".6952733687990114",
        "semi_major_axis": "2.294202385461905",
        "inclination": "5.135839185473913",
        "ascending_node_longitude": "50.2390821847231",
        "orbital_period": "1269.246625295883",
        "perihelion_distance": ".6991045642150784",
        "perihelion_argument": "222.5712136952307",
        "aphelion_distance": "3.889300206708732",
        "perihelion_time": "2458992.633779597659",
        "mean_anomaly": "2.231118277885925",
        "mean_motion": ".2836328203087228",
        "equinox": "J2000",
        "orbit_class": {
            "orbit_class_type": "APO",
            "orbit_class_description": "Near-Earth asteroid orbits which cross the Earth’s orbit similar to that of 1862 Apollo",
            "orbit_class_range": "a (semi-major axis) > 1.0 AU; q (perihelion) < 1.017 AU"
        }
    },
    "is_sentry_object": false
}